LEMUR-1                 
1 40044U 14033AL  22091.54395124  .00001539  00000+0  23130-3 0  9999
2 40044  97.6602 284.2305 0059650  49.2108 311.4255 14.74663333418146
LEMUR-2-XIAOQING        
1 41871U 16062C   22091.46661835  .00035764  00000+0  10861-2 0  9991
2 41871  51.6386   5.4499 0004703  50.6445 309.4953 15.33724961298127
LEMUR-2-SOKOLSKY        
1 41872U 16062D   22091.49763637  .00031151  00000+0  95130-3 0  9997
2 41872  51.6821  14.6396 0003829 127.0120 233.1214 15.33619788298096
LEMUR-2-ANUBHAVTHAKUR   
1 41873U 16062E   22091.59943254  .00014037  00000+0  54356-3 0  9993
2 41873  51.6840  48.0978 0008611  13.0326 347.0874 15.26395736297598
LEMUR-2-WINGO           
1 41874U 16062F   22091.57833957  .00033063  00000+0  10329-2 0  9991
2 41874  51.6525  14.2612 0008309 306.3831  53.6384 15.32842678298026
LEMUR-2-JOBANPUTRA      
1 41991U 17008AV  22091.73311463  .00021878  00000+0  76738-3 0  9991
2 41991  97.2694 154.7629 0007556 143.1120 217.0642 15.29424830284444
LEMUR-2-SPIRE-MINIONS   
1 41992U 17008AW  22091.16770325  .00028052  00000+0  89632-3 0  9993
2 41992  97.2767 157.9227 0007360 137.5420 222.6392 15.32394242284562
LEMUR-2-SATCHMO         
1 41993U 17008AX  22091.17401528  .00017617  00000+0  61820-3 0  9995
2 41993  97.2703 154.7696 0007748 143.2439 216.9335 15.29454384284396
LEMUR-2-SMITA-SHARAD    
1 41994U 17008AY  22091.41291495  .00027441  00000+0  87692-3 0  9994
2 41994  97.2759 157.9521 0007450 135.5152 224.6690 15.32393938284599
LEMUR-2-RDEATON         
1 41995U 17008AZ  22091.40206362  .00018004  00000+0  63238-3 0  9998
2 41995  97.2718 155.1940 0008502 155.7032 204.4611 15.29412173285117
LEMUR-2-TACHIKOMA       
1 41996U 17008BA  22091.40270619  .00026511  00000+0  85536-3 0  9992
2 41996  97.2799 158.1907 0008043 150.5546 209.6151 15.32089239284477
LEMUR-2-NOGUECORREIG    
1 41997U 17008BB  22091.46121885  .00026017  00000+0  82837-3 0  9991
2 41997  97.2779 158.6645 0008103 148.2497 211.9235 15.32517396284611
LEMUR-2-MIA-GRACE       
1 41998U 17008BC  22091.12950486  .00020804  00000+0  73317-3 0  9993
2 41998  97.2707 154.5681 0008324 157.3482 202.8127 15.29275655284296
LEMUR-2-ANGELA          
1 42752U 17019B   22091.72875933  .00036983  00000+0  96663-3 0  9997
2 42752  51.6359 255.7858 0007608 149.0144 211.1290 15.38379090269351
LEMUR-2-JENNYBARNA      
1 42753U 17019C   22091.58000362  .00057055  00000+0  12168-2 0  9998
2 42753  51.6342 236.3893 0005293 171.7198 188.3877 15.44326826269551
LEMUR-2-ROBMOORE        
1 42754U 17019D   22091.70704481  .00033354  00000+0  87214-3 0  9997
2 42754  51.6355 257.0949 0007506 151.0555 209.0847 15.38417295269311
LEMUR-2-SPIROVISION     
1 42755U 17019E   22091.89237450  .00063785  00000+0  13710-2 0  9995
2 42755  51.6362 235.1900 0005975 177.8435 255.1679 15.44044240269515
LEMUR-2-SHAINAJOHL      
1 42771U 17036G   22091.59501056  .00022877  00000+0  84154-3 0  9993
2 42771  97.2125 135.6439 0011516 223.1615 136.8723 15.27818178265241
LEMUR-2-XUENITERENCE    
1 42772U 17036H   22091.60090907  .00026681  00000+0  96135-3 0  9993
2 42772  97.2078 135.7002 0011039 220.6459 139.3958 15.28473607265270
LEMUR-2-LUCYBRYCE       
1 42773U 17036J   22091.55818577  .00013031  00000+0  50514-3 0  9995
2 42773  97.2184 136.1339 0011463 223.7667 136.2664 15.26202149265238
LEMUR-2-KUNGFOO         
1 42774U 17036K   22091.67699599  .00021789  00000+0  79582-3 0  9995
2 42774  97.2120 136.1276 0010971 220.6578 139.3844 15.28067942265279
LEMUR-2-LYNSEY-SYMO     
1 42779U 17036Q   22091.36366445  .00023229  00000+0  79820-3 0  9993
2 42779  97.2172 139.8297 0009169 218.1528 141.9065 15.30069377265448
LEMUR-2-LISASAURUS      
1 42780U 17036R   22091.58315422  .00022019  00000+0  82769-3 0  9990
2 42780  97.2169 137.2439 0009489 228.0244 132.0188 15.27131365265312
LEMUR-2-SAM-AMELIA      
1 42781U 17036S   22091.56526808  .00013588  00000+0  51608-3 0  9990
2 42781  97.2190 138.1426 0009752 226.3791 133.6640 15.26887197265347
LEMUR-2-MCPEAKE         
1 42782U 17036T   22091.56833618  .00022627  00000+0  79930-3 0  9993
2 42782  97.2130 138.6624 0008955 222.2148 137.8404 15.29174893265408
LEMUR-2-GREENBERG       
1 42837U 17042N   22091.61126420  .00004341  00000+0  42042-3 0  9990
2 42837  97.4386 313.3982 0011347 253.7181 106.2791 14.93164894256801
LEMUR-2-ANDIS           
1 42838U 17042P   22091.60825158  .00004177  00000+0  40474-3 0  9998
2 42838  97.4376 313.3526 0011497 253.5871 106.4086 14.93166628256801
LEMUR-2-MONSON          
1 42839U 17042Q   22091.61649695  .00004512  00000+0  43898-3 0  9996
2 42839  97.4387 313.1399 0011092 253.6510 106.3491 14.92965125256786
LEMUR-2-FURIAUS         
1 42840U 17042R   22091.84458196  .00002043  00000+0  20245-3 0  9995
2 42840  97.4422 313.7206 0011366 253.8670 106.1299 14.92807841256823
LEMUR-2-PETERG          
1 42841U 17042S   22091.59089731  .00002176  00000+0  21252-3 0  9999
2 42841  97.4442 314.4318 0010795 250.2848 109.7208 14.93317443256847
LEMUR-2-DEMBITZ         
1 42842U 17042T   22091.58397207  .00004990  00000+0  47961-3 0  9990
2 42842  97.4427 314.2883 0010874 250.9604 109.0439 14.93408389256840
LEMUR-2-ZACHARY         
1 42845U 17042W   22091.61379312  .00005493  00000+0  52100-3 0  9994
2 42845  97.4315 313.5479 0011249 251.8290 108.1706 14.93887194256886
LEMUR-2-ARTFISCHER      
1 42881U 17042BJ  22091.55818345  .00125176  00000+0  13140-2 0  9992
2 42881  96.8112 294.4559 0005953  88.6347 271.5595 15.63935518264998
LEMUR-2-DUNLOP          
1 43053U 17071S   22076.20805877  .25421876  12696-4  42437-3 0  9991
2 43053  51.5276 100.7529 0010652 303.3456  58.2728 16.47225911241877
LEMUR-2-MCCAFFERTY      
1 43123U 18004N   22091.76566546  .00033207  00000+0  10696-2 0  9993
2 43123  97.3813 171.2382 0006838 254.1201 105.9287 15.32106898234813
LEMUR-2-PETERWEBSTER    
1 43124U 18004P   22091.75612200  .00031180  00000+0  10213-2 0  9995
2 43124  97.3816 170.9761 0006784 253.7189 106.3307 15.31580798234805
LEMUR-2-BROWNCOW        
1 43125U 18004Q   22091.80261107  .00036768  00000+0  11506-2 0  9991
2 43125  97.3861 172.3680 0006738 248.0882 111.9644 15.33009602234884
LEMUR-2-DAVEWILSON      
1 43126U 18004R   22091.16308803  .00037164  00000+0  11505-2 0  9996
2 43126  97.3852 171.4919 0006481 252.5307 107.5227 15.33352909234774
LEMUR-2-MARSHALL        
1 43165U 18010C   22091.59900066  .00018507  00000+0  70516-3 0  9990
2 43165  82.9136 139.7616 0025640 241.9641 117.9005 15.26276987232752
LEMUR-2-TALLHAMN-ATC    
1 43167U 18010E   22091.55077430  .00021355  00000+0  89800-3 0  9999
2 43167  82.9185 145.4117 0020045 266.4291  93.4654 15.23099448232407
LEMUR-2-JIN-LUEN        
1 43182U 18014C   22091.54742833  .00009164  00000+0  77348-3 0  9993
2 43182  97.6526 356.8212 0013034 189.3824 170.7157 14.98285547227370
LEMUR-2-URAMCHANSOL     
1 43183U 18014D   22091.42207165  .00008348  00000+0  70465-3 0  9991
2 43183  97.6552 356.8954 0012737 189.5641 170.5341 14.98311453227369
LEMUR-2-KADI            
1 43184U 18014E   22091.71059107  .00006222  00000+0  52909-3 0  9997
2 43184  97.6537 357.1246 0012539 194.4594 165.6272 14.98128524227401
LEMUR-2-THENICKMOLO     
1 43185U 18014F   22091.48615445  .00007578  00000+0  64209-3 0  9996
2 43185  97.6558 357.0710 0012539 190.8555 169.2399 14.98197187227374
LEMUR-2-VU              
1 43558U 18046E   22091.52740435  .00057684  00000+0  13774-2 0  9991
2 43558  51.6394 183.7607 0004192 116.4753 243.6662 15.40952573207661
LEMUR-2-ALEXANDER       
1 43559U 18046F   22091.78047528  .00064158  00000+0  15033-2 0  9997
2 43559  51.6391 180.9790 0004234 116.0837 244.0584 15.41475746207501
LEMUR-2-YUASA           
1 43560U 18046G   22091.56637590  .00056821  00000+0  13549-2 0  9997
2 43560  51.6395 184.0214 0003945 131.1114 229.0212 15.41002441207663
LEMUR-2-TOMHENDERSON    
1 43561U 18046H   22091.80774016  .00051503  00000+0  12691-2 0  9999
2 43561  51.6392 184.8473 0004826 132.0142 228.1255 15.40046750207236
LEMUR-2-ZUPANSKI        
1 43695U 18088F   22091.20667302  .00023642  00000+0  90645-3 0  9995
2 43695  85.0343   5.1151 0017509  65.5776 294.7292 15.26234309188112
LEMUR-2-CHANUSIAK       
1 43697U 18088H   22091.21603821  .00026394  00000+0  98578-3 0  9994
2 43697  85.0410   5.1328 0015783  48.7487 311.5115 15.27124998188226
LEMUR-2-ORZULAK         
1 43731U 18096N   22091.50394900  .00043105  00000+0  11535-2 0  9995
2 43731  97.3665 175.8750 0014775 323.1909  36.8320 15.37804345186401
LEMUR-2-KOBYSZCZE       
1 43732U 18096P   22091.78333239  .00046100  00000+0  12253-2 0  9990
2 43732  97.3685 176.5246 0014864 320.2002  39.8152 15.37997727186462
LEMUR-2-DULY            
1 43745U 18096AC  22091.73290100  .00037783  00000+0  10201-2 0  9996
2 43745  97.3676 176.3424 0015258 321.8868  38.1297 15.37551423186468
LEMUR-2-VLADIMIR        
1 43746U 18096AD  22091.75977711  .00051280  00000+0  13305-2 0  9995
2 43746  97.3671 176.7379 0014649 319.6464  40.3694 15.38717565186511
LEMUR-2-CHRISTINAHOLT   
1 43882U 18111G   22091.48345714  .00009230  00000+0  77406-3 0  9997
2 43882  97.6768   0.2897 0010763 205.8096 154.2591 14.98552674178232
LEMUR-2-TINYKEV         
1 43883U 18111H   22091.28910138  .00007154  00000+0  60025-3 0  9996
2 43883  97.6778   0.2610 0010301 205.7212 154.3500 14.98617685178217
LEMUR-2-REMY-COLTON     
1 43884U 18111J   22091.80548011  .00009659  00000+0  80248-3 0  9993
2 43884  97.6794   1.1600 0010753 211.3359 148.7224 14.98904749176310
LEMUR-2-GUSTAVO         
1 43885U 18111K   22091.67676059  .00007597  00000+0  63740-3 0  9990
2 43885  97.6783   0.7990 0010697 206.6146 153.4529 14.98599674176277
LEMUR-2-ZO              
1 43886U 18111L   22091.74055269  .00007513  00000+0  62891-3 0  9997
2 43886  97.6791   1.1103 0010692 206.7759 153.2913 14.98690860176290
